IRIDIUM 159             
1 43578U 18061K   25093.45525862  .00000481  00000+0  16484-3 0  9997
2 43578  86.3955 240.4072 0002264  95.6602 264.4852 14.34218287350353
IRIDIUM 180             
1 43922U 19002A   25093.59429456  .00000585  00000+0  20195-3 0  9992
2 43922  86.4043 177.3193 0002232  93.4352 266.7100 14.34220451325988
IRIDIUM 176             
1 43923U 19002B   25093.47590339  .00002545  00000+0  39961-3 0  9998
2 43923  86.6161 177.3684 0002626  81.6814 278.4700 14.72260852334556
IRIDIUM 168             
1 43924U 19002C   25093.51818169  .00000526  00000+0  18061-3 0  9993
2 43924  86.4044 177.4158 0002239  96.9773 263.1677 14.34220537325957
IRIDIUM 173             
1 43925U 19002D   25093.29619209  .00000588  00000+0  20304-3 0  9994
2 43925  86.4041 177.4155 0002164  91.0889 269.0555 14.34218204325906
IRIDIUM 169             
1 43926U 19002E   25093.59022115  .00000816  00000+0  26040-3 0  9999
2 43926  86.4283 208.8561 0001612  53.3643 306.7703 14.38608893327021
IRIDIUM 172             
1 43927U 19002F   25093.49915555  .00000406  00000+0  13796-3 0  9997
2 43927  86.4041 177.3375 0002530  94.8683 265.2802 14.34218558325940
IRIDIUM 175             
1 43928U 19002G   25093.53868855  .00000154  00000+0  20492-4 0  9995
2 43928  86.1494 134.1294 0001287  99.0400 261.0962 14.72247875334557
